{
  "norad_id": 68775,
  "name": "STARLINK-37418",
  "history": [
    {
      "epoch": "2026-04-27T13:30:15.406848Z",
      "apogee_km": 289.5065872783689,
      "perigee_km": 285.7984085806711,
      "latitude_deg": 3.7934016759350235e-05,
      "longitude_deg": 94.87419688258515,
      "height_km": 289.0731536885259,
      "semi_major_axis_km": 6665.78949792952,
      "eccentricity": 0.00027815,
      "inclination_deg": 97.2794,
      "raan_deg": 152.9891,
      "arg_perigee_deg": 17.0097,
      "mean_anomaly_deg": 343.1272,
      "mean_motion_rev_day": 15.95237572
    }
  ]
}