STARLINK-37418          
1 68775U 26086K   26117.56267832 -.00558586  10498-3 -14313-2 0  9999
2 68775  97.2794 152.9891 0002781  17.0097 343.1272 15.95237572  1188
